NORAD_CAT_ID,OBJECT_NAME,OBJECT_TYPE,EPOCH,MEAN_MOTION,ECCENTRICITY,INCLINATION,RA_OF_ASC_NODE,ARG_OF_PERICENTER,MEAN_ANOMALY,BSTAR,MEAN_MOTION_DOT,MEAN_MOTION_DDOT,TLE_LINE0,TLE_LINE1,TLE_LINE2,SEMIMAJOR_AXIS,PERIOD,APOGEE,PERIGEE,DECAYED
50178.0,STARLINK-3284,PAYLOAD,2022-05-05 14:00:01,15.08837267,0.0001874,53.2156,72.39699999999998,38.3463,46.5144,-0.00067756,-0.00011055,0.0,0 STARLINK-3284,1 50178U 21125Y   22125.58334491 -.00011055  00000-0 -67756-3 0  9999,2 50178  53.2156  72.3970 0001874  38.3463  46.5144 15.08837267  3576,6917.889,95.438,541.05,538.457,0.0
50178.0,STARLINK-3284,PAYLOAD,2022-05-05 22:00:00,15.0885286,0.0001848,53.2156,70.9007,40.9869,55.4559,-0.00048429,-7.99e-05,0.0,0 STARLINK-3284,1 50178U 21125Y   22125.91667824 -.00007990  00000-0 -48429-3 0  9994,2 50178  53.2156  70.9007 0001848  40.9869  55.4559 15.08852860  3576,6917.840999999999,95.437,540.984,538.428,0.0
50178.0,STARLINK-3284,PAYLOAD,2022-05-06 08:00:01,15.0881962,0.0002012,53.2152,69.0316,33.9537,167.0021,0.0016053,0.00025339,0.0,0 STARLINK-3284,1 50178U 21125Y   22126.33334491  .00025339  00000-0  16053-2 0  9994,2 50178  53.2152  69.0316 0002012  33.9537 167.0021 15.08819620 24251,6917.943,95.439,541.2,538.4159999999998,0.0
50178.0,STARLINK-3284,PAYLOAD,2022-05-06 14:00:01,15.08829708,0.0001839,53.2155,67.9079,36.8442,82.7989,0.0003091,4.633e-05,0.0,0 STARLINK-3284,1 50178U 21125Y   22126.58334491  .00004633  00000-0  30910-3 0  9994,2 50178  53.2155  67.9079 0001839  36.8442  82.7989 15.08829708  3611,6917.9119999999975,95.438,541.049,538.505,0.0
50178.0,STARLINK-3284,PAYLOAD,2022-05-07 06:00:02,15.0880126,0.0002022,53.2156,64.9167,33.1716,109.727,0.0028772,0.00045752,0.0,0 STARLINK-3284,1 50178U 21125Y   22127.25002315  .00045752  00000-0  28772-2 0  9995,2 50178  53.2156  64.9167 0002022  33.1716 109.7270 15.08801260 24390,6917.999,95.44,541.263,538.465,0.0
50178.0,STARLINK-3284,PAYLOAD,2022-05-07 14:00:01,15.08826869,0.0001861,53.2157,63.4186,35.8766,118.5346,0.00085414,0.00013327,0.0,0 STARLINK-3284,1 50178U 21125Y   22127.58334491  .00013327  00000-0  85414-3 0  9994,2 50178  53.2157  63.4186 0001861  35.8766 118.5346 15.08826869  3605,6917.920999999999,95.438,541.073,538.498,0.0
50178.0,STARLINK-3284,PAYLOAD,2022-05-07 22:00:00,15.08854695,0.0001911,53.216,61.9223,39.0009,126.9895,-0.00067215,-0.00010974,0.0,0 STARLINK-3284,1 50178U 21125Y   22127.91667824 -.00010974  00000-0 -67215-3 0  9996,2 50178  53.2160  61.9223 0001911  39.0009 126.9895 15.08854695 24496,6917.835,95.437,541.0219999999998,538.378,0.0
50178.0,STARLINK-3284,PAYLOAD,2022-05-08 14:00:01,15.08822335,0.0001876,53.2161,58.9292,35.5989,153.6153,0.0012285,0.00019308,0.0,0 STARLINK-3284,1 50178U 21125Y   22128.58334491  .00019308  00000-0  12285-2 0  9995,2 50178  53.2161  58.9292 0001876  35.5989 153.6153 15.08822335  3595,6917.934,95.439,541.097,538.502,0.0
50178.0,STARLINK-3284,PAYLOAD,2022-05-08 22:00:00,15.08863439,0.0001949,53.2164,57.4332,39.3549,161.4368,-0.0037106,-0.00058899,0.0,0 STARLINK-3284,1 50178U 21125Y   22128.91667824 -.00058899  00000-0 -37106-2 0  9990,2 50178  53.2164  57.4332 0001949  39.3549 161.4368 15.08863439  3609,6917.809,95.436,541.0219999999998,538.325,0.0
50178.0,STARLINK-3284,PAYLOAD,2022-05-09 06:00:00,15.08801276,0.0002167,53.2163,55.938,36.4475,175.9513,0.0037301,0.00059516,0.0,0 STARLINK-3284,1 50178U 21125Y   22129.25001157  .00059516  00000-0  37301-2 0  9991,2 50178  53.2163  55.9380 0002167  36.4475 175.9513 15.08801276 24698,6917.999,95.44,541.363,538.365,0.0
50178.0,STARLINK-3284,PAYLOAD,2022-05-09 14:00:01,15.08825267,0.0001988,53.2164,54.4398,40.9906,183.0475,0.0010409,0.0001631,0.0,0 STARLINK-3284,1 50178U 21125Y   22129.58335648  .00016310  00000-0  10409-2 0  9997,2 50178  53.2164  54.4398 0001988  40.9906 183.0475 15.08825267  3602,6917.925,95.438,541.1659999999998,538.415,0.0
50178.0,STARLINK-3284,PAYLOAD,2022-05-09 22:00:00,15.0885116,0.0002077,53.2167,52.944,44.0404,191.5244,-0.002143,-0.00034244,0.0,0 STARLINK-3284,1 50178U 21125Y   22129.91667824 -.00034244  00000-0 -21430-2 0  9992,2 50178  53.2167  52.9440 0002077  44.0404 191.5244 15.08851160  3591,6917.846,95.437,541.148,538.274,0.0
50178.0,STARLINK-3284,PAYLOAD,2022-05-10 00:00:00,15.08840679,0.0002158,53.2166,52.5704,43.2006,285.2659,-0.00125,-0.00020128,0.0,0 STARLINK-3284,1 50178U 21125Y   22130.00001157 -.00020128  00000-0 -12500-2 0  9999,2 50178  53.2166  52.5704 0002158  43.2006 285.2659 15.08840679 24809,6917.878000000002,95.438,541.236,538.25,0.0
50178.0,STARLINK-3284,PAYLOAD,2022-05-10 14:00:01,15.088266399999998,0.0002025,53.2166,49.9505,44.8232,213.9154,0.00070761,0.00010987,0.0,0 STARLINK-3284,1 50178U 21125Y   22130.58334491  .00010987  00000-0  70761-3 0  9996,2 50178  53.2166  49.9505 0002025  44.8232 213.9154 15.08826640  3592,6917.920999999999,95.438,541.187,538.385,0.0
50178.0,STARLINK-3284,PAYLOAD,2022-05-10 18:00:00,15.08840267,0.0002007,53.2167,49.2021,46.8801,37.649,-0.0010538,-0.00017021,0.0,0 STARLINK-3284,1 50178U 21125Y   22130.75001157 -.00017021  00000-0 -10538-2 0  9998,2 50178  53.2167  49.2021 0002007  46.8801  37.6490 15.08840267 24928,6917.88,95.438,541.133,538.356,0.0
50178.0,STARLINK-3284,PAYLOAD,2022-05-11 22:00:00,15.08856276,0.0002038,53.2165,43.966,46.2372,258.8294,-0.0011391,-0.0001838,0.0,0 STARLINK-3284,1 50178U 21125Y   22131.91667824 -.00018380  00000-0 -11391-2 0  9993,2 50178  53.2165  43.9660 0002038  46.2372 258.8294 15.08856276 25092,6917.831,95.437,541.105,538.286,0.0
50178.0,STARLINK-3284,PAYLOAD,2022-05-12 14:00:01,15.08851112,0.0001925,53.2162,40.9723,47.1749,281.1213,0.00035363,5.346e-05,0.0,0 STARLINK-3284,1 50178U 21125Y   22132.58334491  .00005346  00000-0  35363-3 0  9990,2 50178  53.2162  40.9723 0001925  47.1749 281.1213 15.08851112  1300,6917.846,95.437,541.043,538.38,0.0
50178.0,STARLINK-3284,PAYLOAD,2022-05-12 20:00:01,15.08858962,0.0001941,53.2165,39.8506,47.767,199.2384,-0.00026604,-4.522e-05,0.0,0 STARLINK-3284,1 50178U 21125Y   22132.83334491 -.00004522  00000-0 -26604-3 0  9993,2 50178  53.2165  39.8506 0001941  47.7670 199.2384 15.08858962 25232,6917.821999999999,95.436,541.03,538.345,0.0
50178.0,STARLINK-3284,PAYLOAD,2022-05-12 22:00:00,15.08862884,0.0001973,53.2164,39.477,45.4167,294.4916,-0.00091544,-0.00014837,0.0,0 STARLINK-3284,1 50178U 21125Y   22132.91667824 -.00014837  00000-0 -91544-3 0  9996,2 50178  53.2164  39.4770 0001973  45.4167 294.4916 15.08862884  1300,6917.81,95.436,541.04,538.311,0.0
50178.0,STARLINK-3284,PAYLOAD,2022-05-13 14:00:01,15.08793311,0.0001785,53.2161,36.4831,43.0027,320.1306,0.0028652,0.00045548,0.0,0 STARLINK-3284,1 50178U 21125Y   22133.58334491  .00045548  00000-0  28652-2 0  9991,2 50178  53.2161  36.4831 0001785  43.0027 320.1306 15.08793311 25340,6918.023,95.441,541.123,538.653,0.0
50178.0,STARLINK-3284,PAYLOAD,2022-05-13 22:00:00,15.08835704,0.0001914,53.2163,34.988,41.7487,332.9406,-0.0010852,-0.00017516,0.0,0 STARLINK-3284,1 50178U 21125Y   22133.91667824 -.00017516  00000-0 -10852-2 0  9996,2 50178  53.2163  34.9880 0001914  41.7487 332.9406 15.08835704  1303,6917.894,95.438,541.0830000000002,538.434,0.0
50178.0,STARLINK-3284,PAYLOAD,2022-05-14 06:00:00,15.08833882,0.000201,53.2161,33.4923,37.3311,348.9362,0.00068002,0.00010549,0.0,0 STARLINK-3284,1 50178U 21125Y   22134.25001157  .00010549  00000-0  68002-3 0  9993,2 50178  53.2161  33.4923 0002010  37.3311 348.9362 15.08833882 25453,6917.899,95.438,541.155,538.374,0.0
50178.0,STARLINK-3284,PAYLOAD,2022-05-14 14:00:01,15.08880983,0.0001814,53.2167,31.9913,41.5318,356.3383,-0.010424,-0.0016265,0.0,0 STARLINK-3284,1 50178U 21125Y   22134.58334491 -.00162650  00000-0 -10424-1 0  9995,2 50178  53.2167  31.9913 0001814  41.5318 356.3383 15.08880983  1304,6917.755,95.435,540.875,538.365,0.0
50178.0,STARLINK-3284,PAYLOAD,2022-05-14 22:00:00,15.0886462,0.0001916,53.2165,30.4992,39.1877,10.2735,-0.0039224,-0.00062217,0.0,0 STARLINK-3284,1 50178U 21125Y   22134.91667824 -.00062217  00000-0 -39224-2 0  9999,2 50178  53.2165  30.4992 0001916  39.1877  10.2735 15.08864620  1306,6917.805,95.436,540.996,538.345,0.0
50178.0,STARLINK-3284,PAYLOAD,2022-05-15 06:00:00,15.0883571,0.0002004,53.2164,29.0032,35.0516,25.999,-0.00091836,-0.00014873,0.0,0 STARLINK-3284,1 50178U 21125Y   22135.25001157 -.00014873  00000-0 -91836-3 0  9991,2 50178  53.2164  29.0032 0002004  35.0516  25.9990 15.08835710 25601,6917.894,95.438,541.145,538.372,0.0
50178.0,STARLINK-3284,PAYLOAD,2022-05-15 14:00:01,15.08794777,0.000186,53.2167,27.5051,42.5646,30.1444,0.0035616,0.00056782,0.0,0 STARLINK-3284,1 50178U 21125Y   22135.58335648  .00056782  00000-0  35616-2 0  9998,2 50178  53.2167  27.5051 0001860  42.5646  30.1444 15.08794777  1304,6918.019,95.44,541.17,538.597,0.0
50178.0,STARLINK-3284,PAYLOAD,2022-05-15 22:00:00,15.0884381,0.0002046,53.2168,26.0103,41.2964,42.9189,-0.00042973,-7.122e-05,0.0,0 STARLINK-3284,1 50178U 21125Y   22135.91667824 -.00007122  00000-0 -42973-3 0  9990,2 50178  53.2168  26.0103 0002046  41.2964  42.9189 15.08843810 25703,6917.869000000002,95.437,541.149,538.318,0.0
50178.0,STARLINK-3284,PAYLOAD,2022-05-16 14:00:01,15.08824603,0.0001914,53.2169,23.0161,43.4445,63.9726,0.00011654,1.566e-05,0.0,0 STARLINK-3284,1 50178U 21125Y   22136.58334491  .00001566  00000-0  11654-3 0  9991,2 50178  53.2169  23.0161 0001914  43.4445  63.9726 15.08824603  1305,6917.927,95.439,541.117,538.4680000000002,0.0
50178.0,STARLINK-3284,PAYLOAD,2022-05-16 22:00:00,15.08829566,0.0002109,53.217,21.5212,42.8773,76.1255,-0.00022665,-3.893e-05,0.0,0 STARLINK-3284,1 50178U 21125Y   22136.91667824 -.00003893  00000-0 -22665-3 0  9998,2 50178  53.2170  21.5212 0002109  42.8773  76.1255 15.08829566  1307,6917.9119999999975,95.438,541.236,538.318,0.0
